OBJECT_NAME,OBJECT_ID,EPOCH,MEAN_MOTION,ECCENTRICITY,INCLINATION,RA_OF_ASC_NODE,ARG_OF_PERICENTER,MEAN_ANOMALY,EPHEMERIS_TYPE,CLASSIFICATION_TYPE,NORAD_CAT_ID,ELEMENT_SET_NO,REV_AT_EPOCH,BSTAR,MEAN_MOTION_DOT,MEAN_MOTION_DDOT
POLYITAN-1,2014-033AJ,2026-07-11T07:45:08.768160,15.34125917,.0008201,98.0945,220.8813,74.8750,285.3398,0,U,40042,999,65729,.3555E-3,.11667E-3,0
TIGRISAT,2014-033AK,2026-07-11T08:52:24.273696,14.85242878,.0048957,97.7858,341.8319,356.9649,3.1262,0,U,40043,999,64921,.10764E-3,.887E-5,0
AEROCUBE 6A,2014-033AM,2026-07-09T17:33:14.827104,14.98308817,.00369154,97.7235,357.4445,299.7682,59.9870,0,U,40045,999,64999,.28750307E-3,.3408E-4,0
AEROCUBE 6B,2014-033AN,2026-07-10T05:53:35.084544,14.99771692,.00379448,97.7203,357.7928,287.6201,72.0880,0,U,40046,999,65021,.25889665E-3,.3186E-4,0
CANX-4,2014-034C,2026-07-10T10:57:21.776256,14.81306260,.00115745,98.3092,67.6207,299.7507,60.2552,0,U,40055,999,64797,.76449036E-4,.539E-5,0
CANX-5,2014-034D,2026-07-11T11:13:44.951232,14.81324563,.0011517,98.3092,68.7139,296.3848,63.6181,0,U,40056,999,63893,.66288E-4,.46E-5,0
UKUBE-1,2014-037F,2026-07-11T11:51:22.319712,15.13914750,.00033,98.4242,198.3264,96.1254,264.0351,0,U,40074,999,65223,.2776E-3,.4949E-4,0
BRITE-PL2 (HEWELIUSZ),2014-049B,2026-07-11T12:59:11.023584,14.94680800,.0014652,97.9117,304.7322,34.1400,326.0759,0,U,40119,999,64508,.10344E-3,.1064E-4,0
AEROCUBE 5C,2015-058B,2026-07-09T00:42:20.006208,14.91551276,.01319227,64.7653,194.6344,54.7863,306.5516,0,U,40965,999,36891,.17146698E-3,.1855E-4,0
AEROCUBE 7,2015-058C,2026-07-11T08:52:31.063008,14.95890731,.0121753,64.7604,169.0605,52.2144,308.9921,0,U,40966,999,36957,.25064E-3,.3081E-4,0
FOX-1A (AO-85),2015-058D,2026-07-11T00:41:55.149792,14.91072604,.0132046,64.7731,204.8837,47.3799,313.8357,0,U,40967,999,11712,.15193E-3,.1601E-4,0
SINOD-D 1,2015-058E,2026-07-11T09:52:53.359680,14.96065583,.0120743,64.7731,183.0409,43.5992,317.4585,0,U,40968,999,12028,.24247E-3,.2981E-4,0
SNAP-3 ALICE,2015-058G,2026-07-10T12:38:02.000256,15.66308605,.0023802,64.7493,22.8906,351.6430,8.4319,0,U,40970,999,12053,.11218E-2,.120022E-2,0
LMRST-SAT,2015-058H,2026-07-10T07:40:18.931584,14.90686200,.01335468,64.7738,203.4710,49.6543,311.6141,0,U,40971,999,11700,.16605514E-3,.1755E-4,0
SNAP-3 EDDIE,2015-058J,2026-07-11T10:55:00.177024,15.67800394,.0025141,64.7398,10.1924,353.8658,6.2180,0,U,40972,999,12282,.92989E-3,.105668E-2,0
PROPCUBE 3,2015-058K,2026-07-11T08:51:19.495296,14.94396849,.0125469,64.7665,176.9739,50.4448,310.7670,0,U,40973,999,11841,.22048E-3,.26E-4,0
BISONSAT,2015-058L,2026-07-11T04:03:27.787104,15.16860579,.0081716,64.7586,96.0683,37.5651,323.1143,0,U,40974,999,11925,.43798E-3,.9235E-4,0
SNAP-3 JIMI,2015-058M,2026-07-11T06:50:34.464768,15.02574155,.0107546,64.7632,143.5121,45.8501,315.1396,0,U,40975,999,11784,.3154E-3,.4584E-4,0
PROPCUBE 1 (FLORA),2015-058N,2026-07-11T12:06:30.458016,14.89317080,.0132216,64.7727,219.8641,51.4946,309.7934,0,U,40976,999,11988,.13042E-3,.1281E-4,0
SINOD-D 3,2015-058P,2026-07-11T11:18:53.375040,14.94155488,.0120761,64.7701,199.9779,48.5870,312.5545,0,U,40977,999,11838,.20732E-3,.2388E-4,0
RAVAN,2016-067B,2026-07-09T14:51:30.576096,15.57028665,.00016998,97.9855,82.8186,255.2675,104.8390,0,U,41849,999,53118,.62254762E-3,.45047E-3,0
CELTEE 1,2016-067C,2026-07-11T02:33:53.695008,15.19916228,.0002193,98.0649,60.3057,115.6959,244.4500,0,U,41850,999,52951,.15905E-3,.3339E-4,0
OPTICUBE 04,2016-067D,2026-07-11T12:52:04.514304,15.09763477,.0016426,98.0681,46.0891,39.7275,320.5153,0,U,41851,999,52884,.1091E-3,.1694E-4,0
AEROCUBE 8D,2016-067E,2026-07-08T14:50:07.137888,15.24707647,.00048788,98.0658,61.4206,72.9126,287.2644,0,U,41852,999,52933,.20032197E-3,.4874E-4,0
AEROCUBE 8C,2016-067F,2026-07-11T01:37:02.108064,15.24986658,.0004677,98.0531,61.2545,357.4690,2.6521,0,U,41853,999,52970,.18565E-3,.4549E-4,0
CORVUS BC2,2017-042X,2026-07-10T07:28:21.992160,15.06442373,.00138712,97.4090,351.7667,39.1681,321.0548,0,U,42846,999,49054,.14632989E-3,.2103E-4,0
CORVUS BC1,2017-042Y,2026-07-10T16:50:45.602880,15.06607650,.0012081,97.4119,352.9716,16.3956,343.7660,0,U,42847,999,49063,.1141E-3,.1633E-4,0
MAKERSAT 0,2017-073D,2026-07-11T03:26:39.954336,15.32906919,.010518,97.4598,74.8581,186.6952,173.2893,0,U,43016,999,47013,.33352E-3,.1257E-3,0
SIRION PATHFINDER-2,2018-099B,2026-07-11T08:39:56.671776,15.14758808,.0008097,97.4245,240.8450,205.7897,154.2933,0,U,43759,999,41628,.1635E-3,.2969E-4,0
CORVUS BC4,2018-099K,2026-07-11T01:40:33.597984,15.12681527,.000653,97.4058,234.3515,278.9204,81.1287,0,U,43767,999,41601,.16777E-3,.2873E-4,0
